start=new Date('2021-10-16T00:00:00.000Z').valueOf();
sats=[{"ECCENTRICITY":"0.00015700","MEAN_ANOMALY":"293.7942","OBJECT_ID":"2019-074BA","CLASSIFICATION_TYPE":"U","TLE_LINE2":"2 44761  53.0538 238.1239 0001570  66.3212 293.7942 15.06391900106073","RCS_SIZE":"LARGE","MEAN_MOTION":"15.06391900","CENTER_NAME":"EARTH","EPOCH":"2021-10-15T06:27:56.050272","SITE":"AFETR","FILE":"3164360","EPHEMERIS_TYPE":"0","APOAPSIS":"548.326","BSTAR":"0.00001346800000","ELEMENT_SET_NO":"999","PERIAPSIS":"546.151","NORAD_CAT_ID":"44761","GP_ID":"187237814","REV_AT_EPOCH":"10607","MEAN_MOTION_DOT":"-0.00000081","MEAN_ELEMENT_THEORY":"SGP4","PERIOD":"95.593","LAUNCH_DATE":"2019-11-11","COUNTRY_CODE":"US","REF_FRAME":"TEME","TLE_LINE1":"1 44761U 19074BA  21288.26939873 -.00000081  00000-0  13468-4 0  9997","OBJECT_NAME":"STARLINK-1056","DECAY_DATE":null,"OBJECT_TYPE":"PAYLOAD","SEMIMAJOR_AXIS":"6925.373","RA_OF_ASC_NODE":"238.1239","TIME_SYSTEM":"UTC","ARG_OF_PERICENTER":"66.3212","MEAN_MOTION_DDOT":"0.0000000000000","INCLINATION":"53.0538"},{"GP_ID":"187278011","REV_AT_EPOCH":"10642","MEAN_MOTION_DOT":"-0.00000398","MEAN_ELEMENT_THEORY":"SGP4","MEAN_ANOMALY":"291.4320","ECCENTRICITY":"0.00017810","OBJECT_ID":"2019-074BB","RCS_SIZE":"LARGE","TLE_LINE2":"2 44762  53.0559 215.7305 0001781  68.6859 291.4320 15.06389883106429","CLASSIFICATION_TYPE":"U","CENTER_NAME":"EARTH","MEAN_MOTION":"15.06389883","EPOCH":"2021-10-15T19:14:54.855456","FILE":"3165217","SITE":"AFETR","APOAPSIS":"548.478","EPHEMERIS_TYPE":"0","ELEMENT_SET_NO":"999","PERIAPSIS":"546.011","NORAD_CAT_ID":"44762","BSTAR":"-0.00000781590000","COUNTRY_CODE":"US","DECAY_DATE":null,"TLE_LINE1":"1 44762U 19074BB  21288.80202379 -.00000398  00000-0 -78159-5 0  9993","OBJECT_NAME":"STARLINK-1057","REF_FRAME":"TEME","OBJECT_TYPE":"PAYLOAD","SEMIMAJOR_AXIS":"6925.380","RA_OF_ASC_NODE":"215.7305","ARG_OF_PERICENTER":"68.6859","TIME_SYSTEM":"UTC","INCLINATION":"53.0559","MEAN_MOTION_DDOT":"0.0000000000000","PERIOD":"95.593","LAUNCH_DATE":"2019-11-11"},{"GP_ID":"187278263","REV_AT_EPOCH":"10611","MEAN_MOTION_DOT":"-0.00000657","MEAN_ELEMENT_THEORY":"SGP4","MEAN_ANOMALY":"282.1080","ECCENTRICITY":"0.00014940","OBJECT_ID":"2019-074BC","RCS_SIZE":"LARGE","CLASSIFICATION_TYPE":"U","TLE_LINE2":"2 44763  53.0550 236.8352 0001494  78.0077 282.1080 15.06391150106111","CENTER_NAME":"EARTH","MEAN_MOTION":"15.06391150","EPOCH":"2021-10-15T13:21:56.490048","FILE":"3165217","SITE":"AFETR","APOAPSIS":"548.275","EPHEMERIS_TYPE":"0","PERIAPSIS":"546.206","NORAD_CAT_ID":"44763","ELEMENT_SET_NO":"999","BSTAR":"-0.00002518800000","COUNTRY_CODE":"US","DECAY_DATE":null,"TLE_LINE1":"1 44763U 19074BC  21288.55690382 -.00000657  00000-0 -25188-4 0  9992","OBJECT_NAME":"STARLINK-1058","REF_FRAME":"TEME","OBJECT_TYPE":"PAYLOAD","SEMIMAJOR_AXIS":"6925.376","RA_OF_ASC_NODE":"236.8352","ARG_OF_PERICENTER":"78.0077","TIME_SYSTEM":"UTC","INCLINATION":"53.0550","MEAN_MOTION_DDOT":"0.0000000000000","PERIOD":"95.593","LAUNCH_DATE":"2019-11-11"},{"COUNTRY_CODE":"US","REF_FRAME":"TEME","DECAY_DATE":null,"TLE_LINE1":"1 44764U 19074BD  21288.79834609 -.00001708  00000-0 -95789-4 0  9993","OBJECT_NAME":"STARLINK-1059","OBJECT_TYPE":"PAYLOAD","SEMIMAJOR_AXIS":"6925.394","RA_OF_ASC_NODE":"215.7507","TIME_SYSTEM":"UTC","ARG_OF_PERICENTER":"78.6570","MEAN_MOTION_DDOT":"0.0000000000000","INCLINATION":"53.0544","PERIOD":"95.593","LAUNCH_DATE":"2019-11-11","GP_ID":"187279013","REV_AT_EPOCH":"10642","MEAN_MOTION_DOT":"-0.00001708","MEAN_ELEMENT_THEORY":"SGP4","MEAN_ANOMALY":"281.4619","ECCENTRICITY":"0.00017810","OBJECT_ID":"2019-074BD","TLE_LINE2":"2 44764  53.0544 215.7507 0001781  78.6570 281.4619 15.06385123106423","CLASSIFICATION_TYPE":"U","RCS_SIZE":"LARGE","MEAN_MOTION":"15.06385123","CENTER_NAME":"EARTH","EPOCH":"2021-10-15T19:09:37.102176","SITE":"AFETR","FILE":"3165217","EPHEMERIS_TYPE":"0","APOAPSIS":"548.493","BSTAR":"-0.00009578900000","PERIAPSIS":"546.026","NORAD_CAT_ID":"44764","ELEMENT_SET_NO":"999"},{"SITE":"AFETR","FILE":"3164748","EPOCH":"2021-10-15T05:16:15.733920","BSTAR":"0.00001759600000","PERIAPSIS":"546.052","ELEMENT_SET_NO":"999","NORAD_CAT_ID":"44765","EPHEMERIS_TYPE":"0","APOAPSIS":"548.376","OBJECT_ID":"2019-074BE","MEAN_ANOMALY":"292.9118","ECCENTRICITY":"0.00016780","MEAN_MOTION":"15.06399809","CENTER_NAME":"EARTH","CLASSIFICATION_TYPE":"U","TLE_LINE2":"2 44765  53.0539 218.3410 0001678  67.2048 292.9118 15.06399809106505","RCS_SIZE":"LARGE","REV_AT_EPOCH":"10650","MEAN_ELEMENT_THEORY":"SGP4","MEAN_MOTION_DOT":"-0.00000019","GP_ID":"187248355","LAUNCH_DATE":"2019-11-11","PERIOD":"95.592","TIME_SYSTEM":"UTC","ARG_OF_PERICENTER":"67.2048","RA_OF_ASC_NODE":"218.3410","MEAN_MOTION_DDOT":"0.0000000000000","INCLINATION":"53.0539","REF_FRAME":"TEME","TLE_LINE1":"1 44765U 19074BE  21288.21962655 -.00000019  00000-0  17596-4 0  9997","OBJECT_NAME":"STARLINK-1060","DECAY_DATE":null,"COUNTRY_CODE":"US","SEMIMAJOR_AXIS":"6925.349","OBJECT_TYPE":"PAYLOAD"},{"PERIOD":"95.593","LAUNCH_DATE":"2019-11-11","OBJECT_TYPE":"PAYLOAD","SEMIMAJOR_AXIS":"6925.367","COUNTRY_CODE":"US","REF_FRAME":"TEME","DECAY_DATE":null,"TLE_LINE1":"1 44766U 19074BF  21288.54952676 -.00000207  00000-0  50401-5 0  9998","OBJECT_NAME":"STARLINK-1061","INCLINATION":"53.0532","MEAN_MOTION_DDOT":"0.0000000000000","RA_OF_ASC_NODE":"236.8578","TIME_SYSTEM":"UTC","ARG_OF_PERICENTER":"67.9555","TLE_LINE2":"2 44766  53.0532 236.8578 0001738  67.9555 292.1618 15.06394033106114","CLASSIFICATION_TYPE":"U","RCS_SIZE":"LARGE","MEAN_MOTION":"15.06394033","CENTER_NAME":"EARTH","MEAN_ANOMALY":"292.1618","ECCENTRICITY":"0.00017380","OBJECT_ID":"2019-074BF","EPHEMERIS_TYPE":"0","APOAPSIS":"548.435","BSTAR":"0.00000504010000","PERIAPSIS":"546.028","ELEMENT_SET_NO":"999","NORAD_CAT_ID":"44766","EPOCH":"2021-10-15T13:11:19.112064","SITE":"AFETR","FILE":"3165217","GP_ID":"187277512","MEAN_MOTION_DOT":"-0.00000207","MEAN_ELEMENT_THEORY":"SGP4","REV_AT_EPOCH":"10611"},{"GP_ID":"187238817","REV_AT_EPOCH":"10608","MEAN_ELEMENT_THEORY":"SGP4","MEAN_MOTION_DOT":"-0.00000078","OBJECT_ID":"2019-074BG","MEAN_ANOMALY":"282.7746","ECCENTRICITY":"0.00015380","CENTER_NAME":"EARTH","MEAN_MOTION":"15.06390214","RCS_SIZE":"LARGE","TLE_LINE2":"2 44767  53.0538 237.7882 0001538  77.3415 282.7746 15.06390214106087","CLASSIFICATION_TYPE":"U","FILE":"3164360","SITE":"AFETR","EPOCH":"2021-10-15T08:14:05.108352","PERIAPSIS":"546.178","NORAD_CAT_ID":"44767","ELEMENT_SET_NO":"999","BSTAR":"0.00001369300000","APOAPSIS":"548.309","EPHEMERIS_TYPE":"0","DECAY_DATE":null,"TLE_LINE1":"1 44767U 19074BG  21288.34311468 -.00000078  00000-0  13693-4 0  9992","OBJECT_NAME":"STARLINK-1062","REF_FRAME":"TEME","COUNTRY_CODE":"US","SEMIMAJOR_AXIS":"6925.379","OBJECT_TYPE":"PAYLOAD","ARG_OF_PERICENTER":"77.3415","TIME_SYSTEM":"UTC","RA_OF_ASC_NODE":"237.7882","INCLINATION":"53.0538","MEAN_MOTION_DDOT":"0.0000000000000","PERIOD":"95.593","LAUNCH_DATE":"2019-11-11"},{"DECAY_DATE":null,"TLE_LINE1":"1 44768U 19074BH  21288.56429297 -.00001589  00000-0 -87863-4 0  9996","OBJECT_NAME":"STARLINK-1063","REF_FRAME":"TEME","COUNTRY_CODE":"US","SEMIMAJOR_AXIS":"6925.399","OBJECT_TYPE":"PAYLOAD","ARG_OF_PERICENTER":"74.5196","TIME_SYSTEM":"UTC","RA_OF_ASC_NODE":"236.8035","MEAN_MOTION_DDOT":"0.0000000000000","INCLINATION":"53.0539","PERIOD":"95.593","LAUNCH_DATE":"2019-11-11","GP_ID":"187278514","REV_AT_EPOCH":"10612","MEAN_ELEMENT_THEORY":"SGP4","MEAN_MOTION_DOT":"-0.00001589","OBJECT_ID":"2019-074BH","ECCENTRICITY":"0.00015320","MEAN_ANOMALY":"285.5962","CENTER_NAME":"EARTH","MEAN_MOTION":"15.06383683","RCS_SIZE":"LARGE","CLASSIFICATION_TYPE":"U","TLE_LINE2":"2 44768  53.0539 236.8035 0001532  74.5196 285.5962 15.06383683106126","FILE":"3165217","SITE":"AFETR","EPOCH":"2021-10-15T13:32:34.912608","NORAD_CAT_ID":"44768","PERIAPSIS":"546.203","ELEMENT_SET_NO":"999","BSTAR":"-0.00008786300000","APOAPSIS":"548.325","EPHEMERIS_TYPE":"0"},{"PERIOD":"92.555","LAUNCH_DATE":"2019-11-11","SEMIMAJOR_AXIS":"6777.870","OBJECT_TYPE":"PAYLOAD","DECAY_DATE":null,"TLE_LINE1":"1 44769U 19074BJ  21288.51194706  .00013250  00000-0  19486-3 0  9997","OBJECT_NAME":"STARLINK-1064","REF_FRAME":"TEME","COUNTRY_CODE":"US","INCLINATION":"53.0558","MEAN_MOTION_DDOT":"0.0000000000000","ARG_OF_PERICENTER":"39.1868","TIME_SYSTEM":"UTC","RA_OF_ASC_NODE":"220.9585","CENTER_NAME":"EARTH","MEAN_MOTION":"15.55832811","RCS_SIZE":"LARGE","TLE_LINE2":"2 44769  53.0558 220.9585 0000969  39.1868 320.9213 15.55832811106408","CLASSIFICATION_TYPE":"U","OBJECT_ID":"2019-074BJ","MEAN_ANOMALY":"320.9213","ECCENTRICITY":"0.00009690","PERIAPSIS":"399.078","ELEMENT_SET_NO":"999","NORAD_CAT_ID":"44769","BSTAR":"0.00019486000000","APOAPSIS":"400.392","EPHEMERIS_TYPE":"0","FILE":"3165217","SITE":"AFETR","EPOCH":"2021-10-15T12:17:12.225984","GP_ID":"187277262","MEAN_ELEMENT_THEORY":"SGP4","MEAN_MOTION_DOT":"0.00013250","REV_AT_EPOCH":"10640"},{"MEAN_MOTION_DDOT":"0.0000000000000","INCLINATION":"53.0015","ARG_OF_PERICENTER":"65.4139","TIME_SYSTEM":"UTC","RA_OF_ASC_NODE":"232.7517","SEMIMAJOR_AXIS":"6917.831","OBJECT_TYPE":"PAYLOAD","OBJECT_NAME":"STARLINK-1065","TLE_LINE1":"1 44770U 19074BK  21288.25495515  .00005521  00000-0  36455-3 0  9999","DECAY_DATE":null,"REF_FRAME":"TEME","COUNTRY_CODE":"US","LAUNCH_DATE":"2019-11-11","PERIOD":"95.437","MEAN_ELEMENT_THEORY":"SGP4","MEAN_MOTION_DOT":"0.00005521","REV_AT_EPOCH":"10612","GP_ID":"187238567","NORAD_CAT_ID":"44770","PERIAPSIS":"538.186","ELEMENT_SET_NO":"999","BSTAR":"0.00036455000000","APOAPSIS":"541.205","EPHEMERIS_TYPE":"0","FILE":"3164360","SITE":"AFETR","EPOCH":"2021-10-15T06:07:08.124960","CENTER_NAME":"EARTH","MEAN_MOTION":"15.08856252","RCS_SIZE":"LARGE","TLE_LINE2":"2 44770  53.0015 232.7517 0002182  65.4139 294.7077 15.08856252106124","CLASSIFICATION_TYPE":"U","OBJECT_ID":"2019-074BK","ECCENTRICITY":"0.00021820","MEAN_ANOMALY":"294.7077"}];
